COMMENT,ORIGINATOR,NORAD_CAT_ID,OBJECT_NAME,OBJECT_TYPE,CLASSIFICATION_TYPE,INTLDES,EPOCH,EPOCH_MICROSECONDS,MEAN_MOTION,ECCENTRICITY,INCLINATION,RA_OF_ASC_NODE,ARG_OF_PERICENTER,MEAN_ANOMALY,EPHEMERIS_TYPE,ELEMENT_SET_NO,REV_AT_EPOCH,BSTAR,MEAN_MOTION_DOT,MEAN_MOTION_DDOT,FILE,TLE_LINE0,TLE_LINE1,TLE_LINE2,OBJECT_ID,OBJECT_NUMBER,SEMIMAJOR_AXIS,PERIOD,APOGEE,PERIGEE,DECAYED
"GENERATED VIA SPACETRACK.ORG API","18 SPCS","48888","SPACEBEE-103","PAYLOAD","U","21059K","2021-09-12 18:35:44","987136","15.12198907","0.0008639","97.5228","23.3972","351.0308","9.0767","0","999","1193","0.00017437","0.00002947","0","3114153","0 SPACEBEE-103","1 48888U 21059K   21255.77482624  .00002947  00000-0  17437-3 0  9995","2 48888  97.5228  23.3972 0008639 351.0308   9.0767 15.12198907 11939","2021-059K","48888","6907.633","95.226","535.465","523.530","0"
"GENERATED VIA SPACETRACK.ORG API","18 SPCS","48888","SPACEBEE-103","PAYLOAD","U","21059K","2021-09-12 21:46:19","258176","15.12200134","0.0008632","97.5227","23.5275","350.5492","9.5575","0","999","1195","0.00018128","0.00003067","0","3114195","0 SPACEBEE-103","1 48888U 21059K   21255.90716734  .00003067  00000-0  18128-3 0  9994","2 48888  97.5227  23.5275 0008632 350.5492   9.5575 15.12200134 11957","2021-059K","48888","6907.629","95.225","535.456","523.531","0"
"GENERATED VIA SPACETRACK.ORG API","18 SPCS","48888","SPACEBEE-103","PAYLOAD","U","21059K","2021-09-13 07:18:02","79936","15.12202271","0.0008598","97.5227","23.9187","349.0908","11.0135","0","999","1201","0.00017727","0.00002998","0","3114796","0 SPACEBEE-103","1 48888U 21059K   21256.30419074  .00002998  00000-0  17727-3 0  9992","2 48888  97.5227  23.9187 0008598 349.0908  11.0135 15.12202271 12011","2021-059K","48888","6907.622","95.225","535.426","523.548","0"
"GENERATED VIA SPACETRACK.ORG API","18 SPCS","48888","SPACEBEE-103","PAYLOAD","U","21059K","2021-09-13 20:00:19","65600","15.12205895","0.0008536","97.5227","24.4401","347.2399","12.8614","0","999","1209","0.00018063","0.00003056","0","3115005","0 SPACEBEE-103","1 48888U 21059K   21256.83355400  .00003056  00000-0  18063-3 0  9992","2 48888  97.5227  24.4401 0008536 347.2399  12.8614 15.12205895 12096","2021-059K","48888","6907.611","95.225","535.373","523.580","0"
"GENERATED VIA SPACETRACK.ORG API","18 SPCS","48888","SPACEBEE-103","PAYLOAD","U","21059K","2021-09-13 20:00:19","65600","15.12205895","0.0008536","97.5227","24.4401","347.2399","12.8614","0","999","1209","0.00018063","0.00003056","0","3115177","0 SPACEBEE-103","1 48888U 21059K   21256.83355400  .00003056  00000-0  18063-3 0  9992","2 48888  97.5227  24.4401 0008536 347.2399  12.8614 15.12205895 12096","2021-059K","48888","6907.611","95.225","535.373","523.580","0"
"GENERATED VIA SPACETRACK.ORG API","18 SPCS","48888","SPACEBEE-103","PAYLOAD","U","21059K","2021-09-14 07:07:18","862176","15.12208357","0.000849","97.5227","24.8964","345.5577","14.541","0","999","1216","0.00017186","0.00002905","0","3115492","0 SPACEBEE-103","1 48888U 21059K   21257.29674609  .00002905  00000-0  17186-3 0  9995","2 48888  97.5227  24.8964 0008490 345.5577  14.5410 15.12208357 12169","2021-059K","48888","6907.604","95.225","535.333","523.604","0"
"GENERATED VIA SPACETRACK.ORG API","18 SPCS","48888","SPACEBEE-103","PAYLOAD","U","21059K","2021-09-14 21:24:52","787232","15.12211198","0.0008429","97.5227","25.483","343.4407","16.6547","0","999","1225","0.00015368","0.00002591","0","3115650","0 SPACEBEE-103","1 48888U 21059K   21257.89227763  .00002591  00000-0  15368-3 0  9997","2 48888  97.5227  25.4830 0008429 343.4407  16.6547 15.12211198 12250","2021-059K","48888","6907.595","95.225","535.283","523.638","0"
"GENERATED VIA SPACETRACK.ORG API","18 SPCS","48888","SPACEBEE-103","PAYLOAD","U","21059K","2021-09-15 02:10:44","67648","15.12212176","0.0008412","97.5227","25.6785","342.7259","17.3684","0","999","1228","0.00014968","0.00002522","0","3115855","0 SPACEBEE-103","1 48888U 21059K   21258.09078782  .00002522  00000-0  14968-3 0  9994","2 48888  97.5227  25.6785 0008412 342.7259  17.3684 15.12212176 12280","2021-059K","48888","6907.592","95.225","535.268","523.646","0"
"GENERATED VIA SPACETRACK.ORG API","18 SPCS","48888","SPACEBEE-103","PAYLOAD","U","21059K","2021-09-15 06:56:35","331648","15.12213179","0.0008395","97.5227","25.8741","341.9065","18.1865","0","999","1231","0.00014484","0.00002438","0","3116289","0 SPACEBEE-103","1 48888U 21059K   21258.28929782  .00002438  00000-0  14484-3 0  9999","2 48888  97.5227  25.8741 0008395 341.9065  18.1865 15.12213179 12318","2021-059K","48888","6907.589","95.225","535.253","523.655","0"
"GENERATED VIA SPACETRACK.ORG API","18 SPCS","48888","SPACEBEE-103","PAYLOAD","U","21059K","2021-09-15 21:14:09","83904","15.12215804","0.0008345","97.5228","26.4607","339.7348","20.355","0","999","1240","0.0001291","0.00002166","0","3116597","0 SPACEBEE-103","1 48888U 21059K   21258.88482736  .00002166  00000-0  12910-3 0  9998","2 48888  97.5228  26.4607 0008345 339.7348  20.3550 15.12215804 12404","2021-059K","48888","6907.581","95.225","535.210","523.682","0"
"GENERATED VIA SPACETRACK.ORG API","18 SPCS","48888","SPACEBEE-103","PAYLOAD","U","21059K","2021-09-16 08:21:08","612640","15.12217997","0.0008304","97.5228","26.917","338.0727","22.0147","0","999","1247","0.0001247","0.0000209","0","3117030","0 SPACEBEE-103","1 48888U 21059K   21259.34801635  .00002090  00000-0  12470-3 0  9990","2 48888  97.5228  26.9170 0008304 338.0727  22.0147 15.12217997 12475","2021-059K","48888","6907.574","95.224","535.175","523.703","0"
"GENERATED VIA SPACETRACK.ORG API","18 SPCS","48888","SPACEBEE-103","PAYLOAD","U","21059K","2021-09-16 08:21:08","612640","15.12217997","0.0008304","97.5228","26.917","338.0727","22.0147","0","999","1247","0.0001247","0.0000209","0","3117121","0 SPACEBEE-103","1 48888U 21059K   21259.34801635  .00002090  00000-0  12470-3 0  9990","2 48888  97.5228  26.9170 0008304 338.0727  22.0147 15.12217997 12475","2021-059K","48888","6907.574","95.224","535.175","523.703","0"
"GENERATED VIA SPACETRACK.ORG API","18 SPCS","48888","SPACEBEE-103","PAYLOAD","U","21059K","2021-09-16 14:42:16","898976","15.12218848","0.0008277","97.5229","27.1777","337.0907","22.9953","0","999","1251","0.00011753","0.00001966","0","3117438","0 SPACEBEE-103","1 48888U 21059K   21259.61269559  .00001966  00000-0  11753-3 0  9997","2 48888  97.5229  27.1777 0008277 337.0907  22.9953 15.12218848 12515","2021-059K","48888","6907.572","95.224","535.154","523.719","0"
"GENERATED VIA SPACETRACK.ORG API","18 SPCS","48888","SPACEBEE-103","PAYLOAD","U","21059K","2021-09-17 08:10:24","609504","15.12221268","0.0008223","97.523","27.8948","334.3591","25.7231","0","999","1262","0.00010276","0.00001711","0","3117657","0 SPACEBEE-103","1 48888U 21059K   21260.34056261  .00001711  00000-0  10276-3 0  9990","2 48888  97.5230  27.8948 0008223 334.3591  25.7231 15.12221268 12626","2021-059K","48888","6907.564","95.224","535.110","523.749","0"
"GENERATED VIA SPACETRACK.ORG API","18 SPCS","48888","SPACEBEE-103","PAYLOAD","U","21059K","2021-09-18 01:38:32","208576","15.12224317","0.0008173","97.5232","28.6118","331.6097","28.4687","0","999","1273","0.00010716","0.00001787","0","3118325","0 SPACEBEE-103","1 48888U 21059K   21261.06842834  .00001787  00000-0  10716-3 0  9991","2 48888  97.5232  28.6118 0008173 331.6097  28.4687 15.12224317 12736","2021-059K","48888","6907.555","95.224","535.066","523.775","0"
"GENERATED VIA SPACETRACK.ORG API","18 SPCS","48888","SPACEBEE-103","PAYLOAD","U","21059K","2021-09-18 14:20:48","575616","15.12226028","0.0008137","97.5234","29.1334","329.4919","30.5837","0","999","1281","0.00010188","0.00001696","0","3118594","0 SPACEBEE-103","1 48888U 21059K   21261.59778444  .00001696  00000-0  10188-3 0  9996","2 48888  97.5234  29.1334 0008137 329.4919  30.5837 15.12226028 12813","2021-059K","48888","6907.550","95.224","535.036","523.794","0"
"GENERATED VIA SPACETRACK.ORG API","18 SPCS","48888","SPACEBEE-103","PAYLOAD","U","21059K","2021-09-19 07:48:56","21760","15.12227832","0.0008083","97.5236","29.8505","326.6118","33.4602","0","999","1292","0.000090491","0.00001499","0","3119887","0 SPACEBEE-103","1 48888U 21059K   21262.32564840  .00001499  00000-0  90491-4 0  9998","2 48888  97.5236  29.8505 0008083 326.6118  33.4602 15.12227832 12920","2021-059K","48888","6907.544","95.224","534.993","523.826","0"
"GENERATED VIA SPACETRACK.ORG API","18 SPCS","48888","SPACEBEE-103","PAYLOAD","U","21059K","2021-09-19 14:10:04","155168","15.12229173","0.0008064","97.5237","30.1113","325.6392","34.4316","0","999","1296","0.000099468","0.00001655","0","3120015","0 SPACEBEE-103","1 48888U 21059K   21262.59032587  .00001655  00000-0  99468-4 0  9992","2 48888  97.5237  30.1113 0008064 325.6392  34.4316 15.12229173 12960","2021-059K","48888","6907.540","95.224","534.976","523.835","0"
"GENERATED VIA SPACETRACK.ORG API","18 SPCS","48888","SPACEBEE-103","PAYLOAD","U","21059K","2021-09-19 20:31:12","267840","15.12230813","0.0008051","97.5238","30.3721","324.5841","35.4854","0","999","1300","0.00011211","0.00001873","0","3120378","0 SPACEBEE-103","1 48888U 21059K   21262.85500310  .00001873  00000-0  11211-3 0  9996","2 48888  97.5238  30.3721 0008051 324.5841  35.4854 15.12230813 13008","2021-059K","48888","6907.535","95.224","534.962","523.839","0"
"GENERATED VIA SPACETRACK.ORG API","18 SPCS","48888","SPACEBEE-103","PAYLOAD","U","21059K","2021-09-20 13:59:19","529952","15.1223378","0.0007999","97.524","31.0893","321.6704","38.3957","0","999","1311","0.00012349","0.0000207","0","3121163","0 SPACEBEE-103","1 48888U 21059K   21263.58286493  .00002070  00000-0  12349-3 0  9993","2 48888  97.5240  31.0893 0007999 321.6704  38.3957 15.12233780 13119","2021-059K","48888","6907.526","95.223","534.917","523.866","0"
